STARLINK-36884
1 68026U 26040M   26079.83335648  .00067805  00000+0  45276-3 0  9990
2 68026  97.2834  28.8431 0001503 104.0394 139.7828 15.75143907  4210
STARLINK-36940
1 68027U 26040N   26079.83335648  .00041790  00000+0  28007-3 0  9999
2 68027  97.2858  28.8724 0001160  79.0688 214.7460 15.75157578  4314
STARLINK-36253
1 68028U 26040P   26079.83335648 -.01917503  00000+0 -21565-1 0  9997
2 68028  97.2851  28.5947 0001501  90.3509 286.8205 15.65633392  4318
STARLINK-36944
1 68029U 26040Q   26079.83335648  .00104765  00000+0  69640-3 0  9991
2 68029  97.2837  28.8447 0000992 108.9758 140.8420 15.75132649  4213
STARLINK-36942
1 68030U 26040R   26079.83335648  .00046619  00000+0  31218-3 0  9996
2 68030  97.2842  28.8497 0001237 101.6500 152.1696 15.75155613  4211
STARLINK-36913
1 68031U 26040S   26079.83335648  .00069977  00000+0  46709-3 0  9990
2 68031  97.2844  28.8514 0001608  71.8638 185.9489 15.75145153  4218
STARLINK-36935
1 68032U 26040T   26079.83335648  .00097854  00000+0  65100-3 0  9992
2 68032  97.2844  28.8648 0000940 104.8170 180.9958 15.75134510  4315
STARLINK-36947
1 68033U 26040U   26079.83335648  .00104939  00000+0  69736-3 0  9995
2 68033  97.2846  28.8537 0001491  84.5601 177.2376 15.75138336  4212
STARLINK-36939
1 68034U 26040V   26079.83335648 -.00039353  00000+0 -26414-3 0  9991
2 68034  97.2842  28.8621 0001525 100.5329 177.2820 15.75193610  4217
STARLINK-36943
1 68035U 26040W   26079.83335648  .00025476  00000+0  17129-3 0  9994
2 68035  97.2858  28.8680 0001402  87.6614 196.1489 15.75172978  4266
STARLINK-36906
1 68036U 26040X   26079.83335648  .00080962  00000+0  53946-3 0  9993
2 68036  97.2850  28.8609 0001661 107.2005 166.5966 15.75150105  4214
STARLINK-36388
1 68037U 26040Y   26079.83335648  .00077097  00000+0  51401-3 0  9993
2 68037  97.2843  28.8644 0000844  84.1505 197.6571 15.75149718  4176
STARLINK-36895
1 68038U 26040Z   26079.83335648  .00151326  00000+0  10017-2 0  9999
2 68038  97.2845  28.8558 0001769 118.8439 150.9283 15.75092927  4217
STARLINK-36373
1 68039U 26040AA  26079.83335648 -.00010619  00000+0 -70423-4 0  9990
2 68039  97.2846  28.8546 0001504  85.5352 180.2755 15.75185420  4162
STARLINK-36711
1 68040U 26041A   26079.93626726  .00224754  00000+0  14267-2 0  9991
2 68040  53.1592   6.0356 0000611  97.8377 262.2713 15.75318793  2996
STARLINK-36825
1 68041U 26041B   26079.91282880  .00243044  00000+0  11955-2 0  9993
2 68041  53.1599   5.8786 0000979  73.3332 286.7798 15.80965234  2993
