[{"OBJECT_NAME":"STARLINK-36884","OBJECT_ID":"2026-040M","EPOCH":"2026-03-20T20:00:01.999872","MEAN_MOTION":15.75143907,"ECCENTRICITY":0.00015034,"INCLINATION":97.2834,"RA_OF_ASC_NODE":28.8431,"ARG_OF_PERICENTER":104.0394,"MEAN_ANOMALY":139.7828,"EPHEMERIS_TYPE":0,"CLASSIFICATION_TYPE":"U","NORAD_CAT_ID":68026,"ELEMENT_SET_NO":999,"REV_AT_EPOCH":421,"BSTAR":0.00045275679,"MEAN_MOTION_DOT":0.00067805,"MEAN_MOTION_DDOT":0},{"OBJECT_NAME":"STARLINK-36940","OBJECT_ID":"2026-040N","EPOCH":"2026-03-20T20:00:01.999872","MEAN_MOTION":15.75157578,"ECCENTRICITY":0.00011601,"INCLINATION":97.2858,"RA_OF_ASC_NODE":28.8724,"ARG_OF_PERICENTER":79.0688,"MEAN_ANOMALY":214.746,"EPHEMERIS_TYPE":0,"CLASSIFICATION_TYPE":"U","NORAD_CAT_ID":68027,"ELEMENT_SET_NO":999,"REV_AT_EPOCH":431,"BSTAR":0.00028007385,"MEAN_MOTION_DOT":0.0004179,"MEAN_MOTION_DDOT":0},{"OBJECT_NAME":"STARLINK-36253","OBJECT_ID":"2026-040P","EPOCH":"2026-03-20T20:00:01.999872","MEAN_MOTION":15.65633392,"ECCENTRICITY":0.00015016,"INCLINATION":97.2851,"RA_OF_ASC_NODE":28.5947,"ARG_OF_PERICENTER":90.3509,"MEAN_ANOMALY":286.8205,"EPHEMERIS_TYPE":0,"CLASSIFICATION_TYPE":"U","NORAD_CAT_ID":68028,"ELEMENT_SET_NO":999,"REV_AT_EPOCH":431,"BSTAR":-0.021565052,"MEAN_MOTION_DOT":-0.01917503,"MEAN_MOTION_DDOT":0},{"OBJECT_NAME":"STARLINK-36944","OBJECT_ID":"2026-040Q","EPOCH":"2026-03-20T20:00:01.999872","MEAN_MOTION":15.75132649,"ECCENTRICITY":9.92e-5,"INCLINATION":97.2837,"RA_OF_ASC_NODE":28.8447,"ARG_OF_PERICENTER":108.9758,"MEAN_ANOMALY":140.842,"EPHEMERIS_TYPE":0,"CLASSIFICATION_TYPE":"U","NORAD_CAT_ID":68029,"ELEMENT_SET_NO":999,"REV_AT_EPOCH":421,"BSTAR":0.00069640494,"MEAN_MOTION_DOT":0.00104765,"MEAN_MOTION_DDOT":0},{"OBJECT_NAME":"STARLINK-36942","OBJECT_ID":"2026-040R","EPOCH":"2026-03-20T20:00:01.999872","MEAN_MOTION":15.75155613,"ECCENTRICITY":0.00012379,"INCLINATION":97.2842,"RA_OF_ASC_NODE":28.8497,"ARG_OF_PERICENTER":101.65,"MEAN_ANOMALY":152.1696,"EPHEMERIS_TYPE":0,"CLASSIFICATION_TYPE":"U","NORAD_CAT_ID":68030,"ELEMENT_SET_NO":999,"REV_AT_EPOCH":421,"BSTAR":0.00031218291,"MEAN_MOTION_DOT":0.00046619,"MEAN_MOTION_DDOT":0},{"OBJECT_NAME":"STARLINK-36913","OBJECT_ID":"2026-040S","EPOCH":"2026-03-20T20:00:01.999872","MEAN_MOTION":15.75145153,"ECCENTRICITY":0.00016083,"INCLINATION":97.2844,"RA_OF_ASC_NODE":28.8514,"ARG_OF_PERICENTER":71.8638,"MEAN_ANOMALY":185.9489,"EPHEMERIS_TYPE":0,"CLASSIFICATION_TYPE":"U","NORAD_CAT_ID":68031,"ELEMENT_SET_NO":999,"REV_AT_EPOCH":421,"BSTAR":0.00046708728,"MEAN_MOTION_DOT":0.00069977,"MEAN_MOTION_DDOT":0},{"OBJECT_NAME":"STARLINK-36935","OBJECT_ID":"2026-040T","EPOCH":"2026-03-20T20:00:01.999872","MEAN_MOTION":15.7513451,"ECCENTRICITY":9.404e-5,"INCLINATION":97.2844,"RA_OF_ASC_NODE":28.8648,"ARG_OF_PERICENTER":104.817,"MEAN_ANOMALY":180.9958,"EPHEMERIS_TYPE":0,"CLASSIFICATION_TYPE":"U","NORAD_CAT_ID":68032,"ELEMENT_SET_NO":999,"REV_AT_EPOCH":431,"BSTAR":0.00065100104,"MEAN_MOTION_DOT":0.00097854,"MEAN_MOTION_DDOT":0},{"OBJECT_NAME":"STARLINK-36947","OBJECT_ID":"2026-040U","EPOCH":"2026-03-20T20:00:01.999872","MEAN_MOTION":15.75138336,"ECCENTRICITY":0.00014916,"INCLINATION":97.2846,"RA_OF_ASC_NODE":28.8537,"ARG_OF_PERICENTER":84.5601,"MEAN_ANOMALY":177.2376,"EPHEMERIS_TYPE":0,"CLASSIFICATION_TYPE":"U","NORAD_CAT_ID":68033,"ELEMENT_SET_NO":999,"REV_AT_EPOCH":421,"BSTAR":0.00069736323,"MEAN_MOTION_DOT":0.00104939,"MEAN_MOTION_DDOT":0},{"OBJECT_NAME":"STARLINK-36939","OBJECT_ID":"2026-040V","EPOCH":"2026-03-20T20:00:01.999872","MEAN_MOTION":15.7519361,"ECCENTRICITY":0.00015251,"INCLINATION":97.2842,"RA_OF_ASC_NODE":28.8621,"ARG_OF_PERICENTER":100.5329,"MEAN_ANOMALY":177.282,"EPHEMERIS_TYPE":0,"CLASSIFICATION_TYPE":"U","NORAD_CAT_ID":68034,"ELEMENT_SET_NO":999,"REV_AT_EPOCH":421,"BSTAR":-0.00026413503,"MEAN_MOTION_DOT":-0.00039353,"MEAN_MOTION_DDOT":0},{"OBJECT_NAME":"STARLINK-36943","OBJECT_ID":"2026-040W","EPOCH":"2026-03-20T20:00:01.999872","MEAN_MOTION":15.75172978,"ECCENTRICITY":0.00014024,"INCLINATION":97.2858,"RA_OF_ASC_NODE":28.868,"ARG_OF_PERICENTER":87.6614,"MEAN_ANOMALY":196.1489,"EPHEMERIS_TYPE":0,"CLASSIFICATION_TYPE":"U","NORAD_CAT_ID":68035,"ELEMENT_SET_NO":999,"REV_AT_EPOCH":426,"BSTAR":0.00017128875,"MEAN_MOTION_DOT":0.00025476,"MEAN_MOTION_DDOT":0},{"OBJECT_NAME":"STARLINK-36906","OBJECT_ID":"2026-040X","EPOCH":"2026-03-20T20:00:01.999872","MEAN_MOTION":15.75150105,"ECCENTRICITY":0.00016615,"INCLINATION":97.285,"RA_OF_ASC_NODE":28.8609,"ARG_OF_PERICENTER":107.2005,"MEAN_ANOMALY":166.5966,"EPHEMERIS_TYPE":0,"CLASSIFICATION_TYPE":"U","NORAD_CAT_ID":68036,"ELEMENT_SET_NO":999,"REV_AT_EPOCH":421,"BSTAR":0.0005394567,"MEAN_MOTION_DOT":0.00080962,"MEAN_MOTION_DDOT":0},{"OBJECT_NAME":"STARLINK-36388","OBJECT_ID":"2026-040Y","EPOCH":"2026-03-20T20:00:01.999872","MEAN_MOTION":15.75149718,"ECCENTRICITY":8.445e-5,"INCLINATION":97.2843,"RA_OF_ASC_NODE":28.8644,"ARG_OF_PERICENTER":84.1505,"MEAN_ANOMALY":197.6571,"EPHEMERIS_TYPE":0,"CLASSIFICATION_TYPE":"U","NORAD_CAT_ID":68037,"ELEMENT_SET_NO":999,"REV_AT_EPOCH":417,"BSTAR":0.00051400909,"MEAN_MOTION_DOT":0.00077097,"MEAN_MOTION_DDOT":0},{"OBJECT_NAME":"STARLINK-36895","OBJECT_ID":"2026-040Z","EPOCH":"2026-03-20T20:00:01.999872","MEAN_MOTION":15.75092927,"ECCENTRICITY":0.00017696,"INCLINATION":97.2845,"RA_OF_ASC_NODE":28.8558,"ARG_OF_PERICENTER":118.8439,"MEAN_ANOMALY":150.9283,"EPHEMERIS_TYPE":0,"CLASSIFICATION_TYPE":"U","NORAD_CAT_ID":68038,"ELEMENT_SET_NO":999,"REV_AT_EPOCH":421,"BSTAR":0.0010017228,"MEAN_MOTION_DOT":0.00151326,"MEAN_MOTION_DDOT":0},{"OBJECT_NAME":"STARLINK-36373","OBJECT_ID":"2026-040AA","EPOCH":"2026-03-20T20:00:01.999872","MEAN_MOTION":15.7518542,"ECCENTRICITY":0.00015049,"INCLINATION":97.2846,"RA_OF_ASC_NODE":28.8546,"ARG_OF_PERICENTER":85.5352,"MEAN_ANOMALY":180.2755,"EPHEMERIS_TYPE":0,"CLASSIFICATION_TYPE":"U","NORAD_CAT_ID":68039,"ELEMENT_SET_NO":999,"REV_AT_EPOCH":416,"BSTAR":-7.0422576e-5,"MEAN_MOTION_DOT":-0.00010619,"MEAN_MOTION_DDOT":0},{"OBJECT_NAME":"STARLINK-36711","OBJECT_ID":"2026-041A","EPOCH":"2026-03-20T22:28:13.491264","MEAN_MOTION":15.75318793,"ECCENTRICITY":6.11e-5,"INCLINATION":53.1592,"RA_OF_ASC_NODE":6.0356,"ARG_OF_PERICENTER":97.8377,"MEAN_ANOMALY":262.2713,"EPHEMERIS_TYPE":0,"CLASSIFICATION_TYPE":"U","NORAD_CAT_ID":68040,"ELEMENT_SET_NO":999,"REV_AT_EPOCH":299,"BSTAR":0.0014267224,"MEAN_MOTION_DOT":0.00224754,"MEAN_MOTION_DDOT":0},{"OBJECT_NAME":"STARLINK-36825","OBJECT_ID":"2026-041B","EPOCH":"2026-03-20T21:54:28.408320","MEAN_MOTION":15.80965234,"ECCENTRICITY":9.796e-5,"INCLINATION":53.1599,"RA_OF_ASC_NODE":5.8786,"ARG_OF_PERICENTER":73.3332,"MEAN_ANOMALY":286.7798,"EPHEMERIS_TYPE":0,"CLASSIFICATION_TYPE":"U","NORAD_CAT_ID":68041,"ELEMENT_SET_NO":999,"REV_AT_EPOCH":299,"BSTAR":0.0011954889,"MEAN_MOTION_DOT":0.00243044,"MEAN_MOTION_DDOT":0}]
